STARLINK-30555          
1 58040U 23156N   26139.33335648 -.00018168  00000+0 -52817-3 0  9991
2 58040  53.1590 199.9110 0001469  79.4596 174.7125 15.34381007  5826
STARLINK-30542          
1 58041U 23156P   26139.18598076  .00001674  00000+0  68641-4 0  9996
2 58041  53.1611 110.7814 0001305  91.3312 268.7838 15.30190742147104
STARLINK-30563          
1 58042U 23156Q   26139.18434035  .00001802  00000+0  72961-4 0  9994
2 58042  53.1608 108.3145 0001239  88.0422 272.0720 15.30196331147144
STARLINK-30564          
1 58043U 23156R   26139.30611276  .00004710  00000+0  17097-3 0  9992
2 58043  53.1587 110.4815 0001352 124.7702 235.3426 15.30212442147129
STARLINK-30547          
1 58044U 23156S   26139.33335648 -.00024426  00000+0 -73336-3 0  9998
2 58044  53.1596 200.0205 0001138  84.5835  90.2158 15.33566446  5774
STARLINK-30550          
1 58045U 23156T   26139.08570877  .00005791  00000+0  20755-3 0  9995
2 58045  53.1602  34.3671 0001471 114.6373 245.4781 15.30193277148151
STARLINK-30548          
1 58046U 23156U   26139.15061467  .00041288  00000+0  12477-2 0  9996
2 58046  53.1602 200.6943 0000377  37.3172 322.7857 15.33855842145778
STARLINK-30529          
1 58047U 23156V   26139.19838879 -.00004077  00000+0 -12553-3 0  9993
2 58047  53.1594 200.9712 0001173  78.9245 281.1887 15.30220151145770
STARLINK-30554          
1 58048U 23156W   26139.15618603  .00001180  00000+0  51974-4 0  9992
2 58048  53.1596 200.7279 0001299  92.6201 267.4948 15.30187633145775
STARLINK-30568          
1 58051U 23158A   26139.29671187  .00001044  00000+0  47460-4 0  9993
2 58051  43.0074 348.7062 0001731 263.7110  96.3545 15.27575039144354
STARLINK-30575          
1 58052U 23158B   26139.29285965 -.00004888  00000+0 -16819-3 0  9993
2 58052  43.0052 348.6765 0001654 237.7380 122.3311 15.27585151144362
STARLINK-30577          
1 58053U 23158C   26138.93381970 -.00002570  00000+0 -83924-4 0  9995
2 58053  42.9991 350.2635 0000681 295.6739  64.4042 15.27570065144318
STARLINK-30566          
1 58054U 23158D   26138.92609058  .00062043  00000+0  22408-2 0  9992
2 58054  43.0005 350.2288 0003228 253.0086 107.0412 15.27641702144316
STARLINK-30544          
1 58055U 23158E   26139.30685498  .00002414  00000+0  97284-4 0  9990
2 58055  43.0064 347.9280 0001723 262.3527  97.7129 15.27564513144378
STARLINK-30553          
1 58056U 23158F   26138.92867768  .00005176  00000+0  19754-3 0  9993
2 58056  42.9992 350.2426 0000744 255.8117 104.2652 15.27568216144313
STARLINK-30541          
1 58057U 23158G   26138.92224883 -.00001308  00000+0 -38030-4 0  9993
2 58057  43.0033 350.1977 0001370 221.4795 138.5952 15.27575177144316
STARLINK-30573          
1 58058U 23158H   26137.88635006 -.00005322  00000+0 -18416-3 0  9996
2 58058  43.0015 356.1766 0002451 270.5130  89.5440 15.27546953144157
STARLINK-30582          
1 58059U 23158J   26139.30299246  .00000206  00000+0  17032-4 0  9996
2 58059  43.0064 347.8994 0001785 266.8001  93.2647 15.27578915144374
STARLINK-30558          
1 58060U 23158K   26139.28514658  .00001109  00000+0  49817-4 0  9991
2 58060  43.0051 348.6061 0001376 267.8294  92.2400 15.27583541144363
STARLINK-30579          
1 58061U 23158L   26139.22795964  .00003628  00000+0  14128-3 0  9991
2 58061  43.0051 322.8848 0001169 270.6388  89.4329 15.27587117144650
STARLINK-30588          
1 58062U 23158M   26138.87099280  .00008697  00000+0  32522-3 0  9999
2 58062  43.0019 350.6659 0001546 255.5180 104.5501 15.27577692144305
STARLINK-30585          
1 58063U 23158N   26139.27101265  .00001027  00000+0  46845-4 0  9996
2 58063  43.0064 348.5127 0001227 268.5479  91.5232 15.27583071144363
STARLINK-30587          
1 58064U 23158P   26138.91838593  .00003281  00000+0  12874-3 0  9996
2 58064  43.0031 350.1730 0001221 260.9926  99.0787 15.27570101144317
STARLINK-30576          
1 58065U 23158Q   26139.26458808  .00002682  00000+0  10695-3 0  9996
2 58065  43.0056 348.4706 0001232 273.1499  86.9211 15.27580391144365
STARLINK-30571          
1 58066U 23158R   26139.28129928 -.00000215  00000+0  17120-5 0  9990
2 58066  43.0054 348.5871 0000761 278.9138  81.1627 15.27569960144364
STARLINK-30567          
1 58067U 23158S   26139.28900566 -.00000556  00000+0 -10676-4 0  9993
2 58067  43.0043 348.6325 0001072 277.1521  82.9209 15.27585012144362
STARLINK-30569          
1 58068U 23158T   26138.93973745  .00002364  00000+0  95421-4 0  9992
2 58068  43.0037 353.7301 0001467 270.4698  89.5985 15.27577138144270
STARLINK-30480          
1 58069U 23158U   26138.47319492  .00004945  00000+0  18901-3 0  9999
2 58069  42.9984 210.7277 0001633 259.7812 100.2855 15.27596730145915
STARLINK-30532          
1 58070U 23158V   26139.26716799  .00010831  00000+0  40246-3 0  9998
2 58070  43.0026 348.4818 0000848 231.5779 128.4997 15.27585056144369
STARLINK-30506          
1 58072U 23158X   26139.27744890  .00015074  00000+0  55613-3 0  9992
2 58072  43.0025 348.5497 0001617 251.9769 108.0906 15.27582522144363
