OBJECT_NAME,OBJECT_ID,EPOCH,MEAN_MOTION,ECCENTRICITY,INCLINATION,RA_OF_ASC_NODE,ARG_OF_PERICENTER,MEAN_ANOMALY,EPHEMERIS_TYPE,CLASSIFICATION_TYPE,NORAD_CAT_ID,ELEMENT_SET_NO,REV_AT_EPOCH,BSTAR,MEAN_MOTION_DOT,MEAN_MOTION_DDOT
STARLINK-30555,2023-156N,2026-05-19T08:00:01.999872,15.34381007,.00014692,53.1590,199.9110,79.4596,174.7125,0,U,58040,999,582,-.52816536E-3,-.18168E-3,0
STARLINK-30542,2023-156P,2026-05-19T04:27:48.737664,15.30190742,.00013055,53.1611,110.7814,91.3312,268.7838,0,U,58041,999,14710,.68641343E-4,.1674E-4,0
STARLINK-30563,2023-156Q,2026-05-19T04:25:27.006240,15.30196331,.00012396,53.1608,108.3145,88.0422,272.0720,0,U,58042,999,14714,.72961258E-4,.1802E-4,0
STARLINK-30564,2023-156R,2026-05-19T07:20:48.142464,15.30212442,.00013528,53.1587,110.4815,124.7702,235.3426,0,U,58043,999,14712,.17097088E-3,.471E-4,0
STARLINK-30547,2023-156S,2026-05-19T08:00:01.999872,15.33566446,.00011387,53.1596,200.0205,84.5835,90.2158,0,U,58044,999,577,-.73335604E-3,-.24426E-3,0
STARLINK-30550,2023-156T,2026-05-19T02:03:25.237728,15.30193277,.00014717,53.1602,34.3671,114.6373,245.4781,0,U,58045,999,14815,.20754558E-3,.5791E-4,0
STARLINK-30548,2023-156U,2026-05-19T03:36:53.107488,15.33855842,.00003776,53.1602,200.6943,37.3172,322.7857,0,U,58046,999,14577,.12476803E-2,.41288E-3,0
STARLINK-30529,2023-156V,2026-05-19T04:45:40.791456,15.30220151,.00011731,53.1594,200.9712,78.9245,281.1887,0,U,58047,999,14577,-.12552615E-3,-.4077E-4,0
STARLINK-30554,2023-156W,2026-05-19T03:44:54.472992,15.30187633,.00012995,53.1596,200.7279,92.6201,267.4948,0,U,58048,999,14577,.51973501E-4,.118E-4,0
STARLINK-30568,2023-158A,2026-05-19T07:07:15.905568,15.27575039,.00017319,43.0074,348.7062,263.7110,96.3545,0,U,58051,999,14435,.47459536E-4,.1044E-4,0
STARLINK-30575,2023-158B,2026-05-19T07:01:43.073760,15.27585151,.00016544,43.0052,348.6765,237.7380,122.3311,0,U,58052,999,14436,-.16819236E-3,-.4888E-4,0
STARLINK-30577,2023-158C,2026-05-18T22:24:42.022080,15.27570065,.00006813,42.9991,350.2635,295.6739,64.4042,0,U,58053,999,14431,-.83924283E-4,-.257E-4,0
STARLINK-30566,2023-158D,2026-05-18T22:13:34.226112,15.27641702,.0003228,43.0005,350.2288,253.0086,107.0412,0,U,58054,999,14431,.22408E-2,.62043E-3,0
STARLINK-30544,2023-158E,2026-05-19T07:21:52.270272,15.27564513,.00017234,43.0064,347.9280,262.3527,97.7129,0,U,58055,999,14437,.97284261E-4,.2414E-4,0
STARLINK-30553,2023-158F,2026-05-18T22:17:17.751552,15.27568216,.00007446,42.9992,350.2426,255.8117,104.2652,0,U,58056,999,14431,.19754059E-3,.5176E-4,0
STARLINK-30541,2023-158G,2026-05-18T22:08:02.298912,15.27575177,.00013702,43.0033,350.1977,221.4795,138.5952,0,U,58057,999,14431,-.38029709E-4,-.1308E-4,0
STARLINK-30573,2023-158H,2026-05-17T21:16:20.645184,15.27546953,.0002451,43.0015,356.1766,270.5130,89.5440,0,U,58058,999,14415,-.18416205E-3,-.5322E-4,0
STARLINK-30582,2023-158J,2026-05-19T07:16:18.548544,15.27578915,.00017858,43.0064,347.8994,266.8001,93.2647,0,U,58059,999,14437,.170319E-4,.206E-5,0
STARLINK-30558,2023-158K,2026-05-19T06:50:36.664512,15.27583541,.00013762,43.0051,348.6061,267.8294,92.2400,0,U,58060,999,14436,.49817278E-4,.1109E-4,0
STARLINK-30579,2023-158L,2026-05-19T05:28:15.712896,15.27587117,.00011696,43.0051,322.8848,270.6388,89.4329,0,U,58061,999,14465,.14127879E-3,.3628E-4,0
STARLINK-30588,2023-158M,2026-05-18T20:54:13.777920,15.27577692,.00015464,43.0019,350.6659,255.5180,104.5501,0,U,58062,999,14430,.32521528E-3,.8697E-4,0
STARLINK-30585,2023-158N,2026-05-19T06:30:15.492960,15.27583071,.00012276,43.0064,348.5127,268.5479,91.5232,0,U,58063,999,14436,.46844501E-4,.1027E-4,0
STARLINK-30587,2023-158P,2026-05-18T22:02:28.544352,15.27570101,.00012214,43.0031,350.1730,260.9926,99.0787,0,U,58064,999,14431,.12874428E-3,.3281E-4,0
STARLINK-30576,2023-158Q,2026-05-19T06:21:00.410112,15.27580391,.00012326,43.0056,348.4706,273.1499,86.9211,0,U,58065,999,14436,.10694716E-3,.2682E-4,0
STARLINK-30571,2023-158R,2026-05-19T06:45:04.257792,15.27569960,.00007614,43.0054,348.5871,278.9138,81.1627,0,U,58066,999,14436,.1711961E-5,-.215E-5,0
STARLINK-30567,2023-158S,2026-05-19T06:56:10.089024,15.27585012,.00010724,43.0043,348.6325,277.1521,82.9209,0,U,58067,999,14436,-.10676497E-4,-.556E-5,0
STARLINK-30569,2023-158T,2026-05-18T22:33:13.315680,15.27577138,.00014676,43.0037,353.7301,270.4698,89.5985,0,U,58068,999,14427,.95421258E-4,.2364E-4,0
STARLINK-30480,2023-158U,2026-05-18T11:21:24.041088,15.27596730,.00016333,42.9984,210.7277,259.7812,100.2855,0,U,58069,999,14591,.18900558E-3,.4945E-4,0
STARLINK-30532,2023-158V,2026-05-19T06:24:43.314336,15.27585056,.00008486,43.0026,348.4818,231.5779,128.4997,0,U,58070,999,14436,.40245946E-3,.10831E-3,0
STARLINK-30506,2023-158X,2026-05-19T06:39:31.584960,15.27582522,.00016172,43.0025,348.5497,251.9769,108.0906,0,U,58072,999,14436,.55613019E-3,.15074E-3,0
